{
  "type": "FeatureCollection",
  "features": [
    {
      "geometry": {
        "coordinates": [
          -88.07472222222222,
          43.09295277777778
        ],
        "type": "Point"
      },
      "properties": {
        "caption": "Willis the whale/dolphin/shark",
        "image": "https://raw.githubusercontent.com/justhappytobehereco/sticker-map-data/main/images/reczfhVcZBUwU5PNT.webp",
        "location": "43.092953, -88.074722",
        "location_format": "latitude_longitude",
        "location_source": "photo_exif_gps",
        "record_id": "reczfhVcZBUwU5PNT"
      },
      "type": "Feature"
    },
    {
      "geometry": {
        "coordinates": [
          -87.8826594,
          43.0708706
        ],
        "type": "Point"
      },
      "properties": {
        "caption": "Locust and Frederick stop sign",
        "image": "https://raw.githubusercontent.com/justhappytobehereco/sticker-map-data/main/images/rec8x6fQVnJkAHURJ.webp",
        "location": "43.0709320,-87.8829393",
        "location_format": "address_text",
        "location_source": "airtable_address_geocoded",
        "record_id": "rec8x6fQVnJkAHURJ"
      },
      "type": "Feature"
    },
    {
      "geometry": {
        "coordinates": [
          -87.8838344,
          43.0725462
        ],
        "type": "Point"
      },
      "properties": {
        "caption": "Red Pole",
        "image": "https://raw.githubusercontent.com/justhappytobehereco/sticker-map-data/main/images/rec16Rl6ep5VKAHgc.webp",
        "location": "43.0725967,-87.8840702",
        "location_format": "address_text",
        "location_source": "airtable_address_geocoded",
        "record_id": "rec16Rl6ep5VKAHgc"
      },
      "type": "Feature"
    },
    {
      "geometry": {
        "coordinates": [
          -87.8839192,
          43.0744489
        ],
        "type": "Point"
      },
      "properties": {
        "caption": "Fredrick and Kenwood Stop Sign",
        "image": "https://raw.githubusercontent.com/justhappytobehereco/sticker-map-data/main/images/recyYFs3jO8W9Wj1Z.webp",
        "location": "43.0745105,-87.8840548",
        "location_format": "address_text",
        "location_source": "airtable_address_geocoded",
        "record_id": "recyYFs3jO8W9Wj1Z"
      },
      "type": "Feature"
    },
    {
      "geometry": {
        "coordinates": [
          -87.884501,
          43.0755383
        ],
        "type": "Point"
      },
      "properties": {
        "caption": "Sign",
        "image": "https://raw.githubusercontent.com/justhappytobehereco/sticker-map-data/main/images/reciYbRYwjqXOp7Np.webp",
        "location": "43.0748540,-87.8844813",
        "location_format": "address_text",
        "location_source": "airtable_address_geocoded",
        "record_id": "reciYbRYwjqXOp7Np"
      },
      "type": "Feature"
    },
    {
      "geometry": {
        "coordinates": [
          -87.884501,
          43.0755383
        ],
        "type": "Point"
      },
      "properties": {
        "caption": "Bike racks",
        "image": "https://raw.githubusercontent.com/justhappytobehereco/sticker-map-data/main/images/rec1zrNPnHfxx2l8N.webp",
        "location": "43.0748844,-87.8843861",
        "location_format": "address_text",
        "location_source": "airtable_address_geocoded",
        "record_id": "rec1zrNPnHfxx2l8N"
      },
      "type": "Feature"
    },
    {
      "geometry": {
        "coordinates": [
          -87.885153,
          43.0743722
        ],
        "type": "Point"
      },
      "properties": {
        "caption": "Murray and kenwood Stop Sign",
        "image": "https://raw.githubusercontent.com/justhappytobehereco/sticker-map-data/main/images/reckum8qs200W9gNq.webp",
        "location": "43.0745101,-87.8852746",
        "location_format": "address_text",
        "location_source": "airtable_address_geocoded",
        "record_id": "reckum8qs200W9gNq"
      },
      "type": "Feature"
    },
    {
      "geometry": {
        "coordinates": [
          -87.8857911,
          43.0743774
        ],
        "type": "Point"
      },
      "properties": {
        "caption": "Pole",
        "image": "https://raw.githubusercontent.com/justhappytobehereco/sticker-map-data/main/images/recMpq4XUBWGB4GJE.webp",
        "location": "43.0745473,-87.8858128",
        "location_format": "address_text",
        "location_source": "airtable_address_geocoded",
        "record_id": "recMpq4XUBWGB4GJE"
      },
      "type": "Feature"
    },
    {
      "geometry": {
        "coordinates": [
          -87.8864151,
          43.074383
        ],
        "type": "Point"
      },
      "properties": {
        "caption": "Stop Sign",
        "image": "https://raw.githubusercontent.com/justhappytobehereco/sticker-map-data/main/images/recu6YelxdYrKMg4Z.webp",
        "location": "43.0745459,-87.8865311",
        "location_format": "address_text",
        "location_source": "airtable_address_geocoded",
        "record_id": "recu6YelxdYrKMg4Z"
      },
      "type": "Feature"
    },
    {
      "geometry": {
        "coordinates": [
          -87.8864151,
          43.074383
        ],
        "type": "Point"
      },
      "properties": {
        "caption": "Bent sign",
        "image": "https://raw.githubusercontent.com/justhappytobehereco/sticker-map-data/main/images/recBr71Tl4dICUrCI.webp",
        "location": "43.0745734,-87.8864866",
        "location_format": "address_text",
        "location_source": "airtable_address_geocoded",
        "record_id": "recBr71Tl4dICUrCI"
      },
      "type": "Feature"
    },
    {
      "geometry": {
        "coordinates": [
          -87.8877613,
          43.0744866
        ],
        "type": "Point"
      },
      "properties": {
        "caption": "Traffic light",
        "image": "https://raw.githubusercontent.com/justhappytobehereco/sticker-map-data/main/images/recxKlKgfAPiHI3ZD.webp",
        "location": "43.0745289,-87.8877593",
        "location_format": "address_text",
        "location_source": "airtable_address_geocoded",
        "record_id": "recxKlKgfAPiHI3ZD"
      },
      "type": "Feature"
    },
    {
      "geometry": {
        "coordinates": [
          -87.8881908,
          43.0748004
        ],
        "type": "Point"
      },
      "properties": {
        "caption": "Traffic light",
        "image": "https://raw.githubusercontent.com/justhappytobehereco/sticker-map-data/main/images/recrQ0d1DzMZtiKvM.webp",
        "location": "43.0746337,-87.8880201",
        "location_format": "address_text",
        "location_source": "airtable_address_geocoded",
        "record_id": "recrQ0d1DzMZtiKvM"
      },
      "type": "Feature"
    },
    {
      "geometry": {
        "coordinates": [
          -87.8881908,
          43.0748004
        ],
        "type": "Point"
      },
      "properties": {
        "caption": "Sign",
        "image": "https://raw.githubusercontent.com/justhappytobehereco/sticker-map-data/main/images/recJmrvRkboRV1FgP.webp",
        "location": "43.0746435,-87.8882325",
        "location_format": "address_text",
        "location_source": "airtable_address_geocoded",
        "record_id": "recJmrvRkboRV1FgP"
      },
      "type": "Feature"
    },
    {
      "geometry": {
        "coordinates": [
          -87.8881908,
          43.0748004
        ],
        "type": "Point"
      },
      "properties": {
        "caption": "Bus stop",
        "image": "https://raw.githubusercontent.com/justhappytobehereco/sticker-map-data/main/images/recXRrY6l65nCzaDG.webp",
        "location": "43.0748328,-87.8880228",
        "location_format": "address_text",
        "location_source": "airtable_address_geocoded",
        "record_id": "recXRrY6l65nCzaDG"
      },
      "type": "Feature"
    },
    {
      "geometry": {
        "coordinates": [
          -87.8874524,
          43.0756019
        ],
        "type": "Point"
      },
      "properties": {
        "caption": "Two cans",
        "image": "https://raw.githubusercontent.com/justhappytobehereco/sticker-map-data/main/images/recsHhCcCppzMOLfO.webp",
        "location": "43.0755731,-87.8872579",
        "location_format": "address_text",
        "location_source": "airtable_address_geocoded",
        "record_id": "recsHhCcCppzMOLfO"
      },
      "type": "Feature"
    },
    {
      "geometry": {
        "coordinates": [
          -87.8861139,
          43.0757005
        ],
        "type": "Point"
      },
      "properties": {
        "caption": "Trash",
        "image": "https://raw.githubusercontent.com/justhappytobehereco/sticker-map-data/main/images/recmqGR2uSHADCS9W.webp",
        "location": "43.0755348,-87.8864828",
        "location_format": "address_text",
        "location_source": "airtable_address_geocoded",
        "record_id": "recmqGR2uSHADCS9W"
      },
      "type": "Feature"
    },
    {
      "geometry": {
        "coordinates": [
          -87.8852029,
          43.075692
        ],
        "type": "Point"
      },
      "properties": {
        "caption": "Repair station",
        "image": "https://raw.githubusercontent.com/justhappytobehereco/sticker-map-data/main/images/recJe8y2oEvtE0Msc.webp",
        "location": "43.0755967,-87.8852821",
        "location_format": "address_text",
        "location_source": "airtable_address_geocoded",
        "record_id": "recJe8y2oEvtE0Msc"
      },
      "type": "Feature"
    },
    {
      "geometry": {
        "coordinates": [
          -87.8831246,
          43.0762581
        ],
        "type": "Point"
      },
      "properties": {
        "caption": "Trash can",
        "image": "https://raw.githubusercontent.com/justhappytobehereco/sticker-map-data/main/images/rec7Rfv5eXgfhovEt.webp",
        "location": "43.0763450,-87.8831303",
        "location_format": "address_text",
        "location_source": "airtable_address_geocoded",
        "record_id": "rec7Rfv5eXgfhovEt"
      },
      "type": "Feature"
    },
    {
      "geometry": {
        "coordinates": [
          -87.883004,
          43.0775862
        ],
        "type": "Point"
      },
      "properties": {
        "caption": "Stop Light",
        "image": "https://raw.githubusercontent.com/justhappytobehereco/sticker-map-data/main/images/recOahpbzV9VLbc4B.webp",
        "location": "43.0775452,-87.8829191",
        "location_format": "address_text",
        "location_source": "airtable_address_geocoded",
        "record_id": "recOahpbzV9VLbc4B"
      },
      "type": "Feature"
    },
    {
      "geometry": {
        "coordinates": [
          -87.8827191,
          43.0780956
        ],
        "type": "Point"
      },
      "properties": {
        "caption": "Trash can",
        "image": "https://raw.githubusercontent.com/justhappytobehereco/sticker-map-data/main/images/recH537PGvHiCtBpc.webp",
        "location": "43.0780406,-87.8822580",
        "location_format": "address_text",
        "location_source": "airtable_address_geocoded",
        "record_id": "recH537PGvHiCtBpc"
      },
      "type": "Feature"
    },
    {
      "geometry": {
        "coordinates": [
          -87.8815651,
          43.0784228
        ],
        "type": "Point"
      },
      "properties": {
        "caption": "Trash",
        "image": "https://raw.githubusercontent.com/justhappytobehereco/sticker-map-data/main/images/recOffVdaAixaRb6J.webp",
        "location": "43.0785215,-87.8817017",
        "location_format": "address_text",
        "location_source": "airtable_address_geocoded",
        "record_id": "recOffVdaAixaRb6J"
      },
      "type": "Feature"
    },
    {
      "geometry": {
        "coordinates": [
          -87.8811756,
          43.0764007
        ],
        "type": "Point"
      },
      "properties": {
        "caption": "Trash",
        "image": "https://raw.githubusercontent.com/justhappytobehereco/sticker-map-data/main/images/recuehKgoeMSjYNgA.webp",
        "location": "43.0765019,-87.8809712",
        "location_format": "address_text",
        "location_source": "airtable_address_geocoded",
        "record_id": "recuehKgoeMSjYNgA"
      },
      "type": "Feature"
    },
    {
      "geometry": {
        "coordinates": [
          -87.8815651,
          43.0784228
        ],
        "type": "Point"
      },
      "properties": {
        "caption": "The poles",
        "image": "https://raw.githubusercontent.com/justhappytobehereco/sticker-map-data/main/images/recgpt5GdsIQQb4UK.webp",
        "location": "43.0782529,-87.8817245",
        "location_format": "address_text",
        "location_source": "airtable_address_geocoded",
        "record_id": "recgpt5GdsIQQb4UK"
      },
      "type": "Feature"
    },
    {
      "geometry": {
        "coordinates": [
          -87.8815651,
          43.0784228
        ],
        "type": "Point"
      },
      "properties": {
        "caption": "Picnic table",
        "image": "https://raw.githubusercontent.com/justhappytobehereco/sticker-map-data/main/images/recxJb8hQdfLizmGA.webp",
        "location": "43.0784714,-87.8820033",
        "location_format": "address_text",
        "location_source": "airtable_address_geocoded",
        "record_id": "recxJb8hQdfLizmGA"
      },
      "type": "Feature"
    },
    {
      "geometry": {
        "coordinates": [
          -87.8815316,
          43.0775445
        ],
        "type": "Point"
      },
      "properties": {
        "caption": "Sign",
        "image": "https://raw.githubusercontent.com/justhappytobehereco/sticker-map-data/main/images/rec42qxhVb4wv6q3D.webp",
        "location": "43.0773244,-87.8814014",
        "location_format": "address_text",
        "location_source": "airtable_address_geocoded",
        "record_id": "rec42qxhVb4wv6q3D"
      },
      "type": "Feature"
    },
    {
      "geometry": {
        "coordinates": [
          -87.879897,
          43.0775685
        ],
        "type": "Point"
      },
      "properties": {
        "caption": "Light pole",
        "image": "https://raw.githubusercontent.com/justhappytobehereco/sticker-map-data/main/images/recS8yuybtyYnmZc5.webp",
        "location": "43.0777754,-87.8798445",
        "location_format": "address_text",
        "location_source": "airtable_address_geocoded",
        "record_id": "recS8yuybtyYnmZc5"
      },
      "type": "Feature"
    },
    {
      "geometry": {
        "coordinates": [
          -87.9142022,
          43.0418849
        ],
        "type": "Point"
      },
      "properties": {
        "caption": "Water fountain",
        "image": "https://raw.githubusercontent.com/justhappytobehereco/sticker-map-data/main/images/recCIDvgg0pv5dbiQ.webp",
        "location": "43.0421231,-87.9140812",
        "location_format": "address_text",
        "location_source": "airtable_address_geocoded",
        "record_id": "recCIDvgg0pv5dbiQ"
      },
      "type": "Feature"
    },
    {
      "geometry": {
        "coordinates": [
          -87.9138243,
          43.0416533
        ],
        "type": "Point"
      },
      "properties": {
        "caption": "Utility",
        "image": "https://raw.githubusercontent.com/justhappytobehereco/sticker-map-data/main/images/recHIyMETRqMSLdWJ.webp",
        "location": "43.0417448,-87.9138306",
        "location_format": "address_text",
        "location_source": "airtable_address_geocoded",
        "record_id": "recHIyMETRqMSLdWJ"
      },
      "type": "Feature"
    },
    {
      "geometry": {
        "coordinates": [
          -87.9142022,
          43.0418849
        ],
        "type": "Point"
      },
      "properties": {
        "caption": "Utility",
        "image": "https://raw.githubusercontent.com/justhappytobehereco/sticker-map-data/main/images/recJLIwllRegs3mOn.webp",
        "location": "43.0416280,-87.9143169",
        "location_format": "address_text",
        "location_source": "airtable_address_geocoded",
        "record_id": "recJLIwllRegs3mOn"
      },
      "type": "Feature"
    },
    {
      "geometry": {
        "coordinates": [
          -87.9151199,
          43.0419769
        ],
        "type": "Point"
      },
      "properties": {
        "caption": "Parking sign",
        "image": "https://raw.githubusercontent.com/justhappytobehereco/sticker-map-data/main/images/recSuE93zkBe88vRs.webp",
        "location": "43.0416952,-87.9146484",
        "location_format": "address_text",
        "location_source": "airtable_address_geocoded",
        "record_id": "recSuE93zkBe88vRs"
      },
      "type": "Feature"
    },
    {
      "geometry": {
        "coordinates": [
          -87.915523,
          43.0440796
        ],
        "type": "Point"
      },
      "properties": {
        "caption": "Pole",
        "image": "https://raw.githubusercontent.com/justhappytobehereco/sticker-map-data/main/images/recp3EgZrGoy73y6Y.webp",
        "location": "43.0440038,-87.9158541",
        "location_format": "address_text",
        "location_source": "airtable_address_geocoded",
        "record_id": "recp3EgZrGoy73y6Y"
      },
      "type": "Feature"
    },
    {
      "geometry": {
        "coordinates": [
          -87.9158404,
          43.0438777
        ],
        "type": "Point"
      },
      "properties": {
        "caption": "Pole",
        "image": "https://raw.githubusercontent.com/justhappytobehereco/sticker-map-data/main/images/recbFRrQ0XqSHNn7H.webp",
        "location": "43.0438530,-87.9158784",
        "location_format": "address_text",
        "location_source": "airtable_address_geocoded",
        "record_id": "recbFRrQ0XqSHNn7H"
      },
      "type": "Feature"
    },
    {
      "geometry": {
        "coordinates": [
          -87.915523,
          43.0440796
        ],
        "type": "Point"
      },
      "properties": {
        "caption": "Pole",
        "image": "https://raw.githubusercontent.com/justhappytobehereco/sticker-map-data/main/images/recAFVOeGmj2Kb1YB.webp",
        "location": "43.0441647,-87.9158436",
        "location_format": "address_text",
        "location_source": "airtable_address_geocoded",
        "record_id": "recAFVOeGmj2Kb1YB"
      },
      "type": "Feature"
    },
    {
      "geometry": {
        "coordinates": [
          -87.915523,
          43.0440796
        ],
        "type": "Point"
      },
      "properties": {
        "caption": "Pole",
        "image": "https://raw.githubusercontent.com/justhappytobehereco/sticker-map-data/main/images/recrMBFqQRQSuhDK4.webp",
        "location": "43.0442411,-87.9157738",
        "location_format": "address_text",
        "location_source": "airtable_address_geocoded",
        "record_id": "recrMBFqQRQSuhDK4"
      },
      "type": "Feature"
    },
    {
      "geometry": {
        "coordinates": [
          -87.9157497,
          43.0449916
        ],
        "type": "Point"
      },
      "properties": {
        "caption": "Poles",
        "image": "https://raw.githubusercontent.com/justhappytobehereco/sticker-map-data/main/images/recHSAmt0O05dRb9Z.webp",
        "location": "43.0443851,-87.9159816",
        "location_format": "address_text",
        "location_source": "airtable_address_geocoded",
        "record_id": "recHSAmt0O05dRb9Z"
      },
      "type": "Feature"
    },
    {
      "geometry": {
        "coordinates": [
          -87.9149567,
          43.0451004
        ],
        "type": "Point"
      },
      "properties": {
        "caption": "Atm",
        "image": "https://raw.githubusercontent.com/justhappytobehereco/sticker-map-data/main/images/recbHVuHAmuCKrVuU.webp",
        "location": "43.0451100,-87.9150633",
        "location_format": "address_text",
        "location_source": "airtable_address_geocoded",
        "record_id": "recbHVuHAmuCKrVuU"
      },
      "type": "Feature"
    },
    {
      "geometry": {
        "coordinates": [
          -87.9146878,
          43.0449314
        ],
        "type": "Point"
      },
      "properties": {
        "caption": "Uncle bucks bathroom",
        "image": "https://raw.githubusercontent.com/justhappytobehereco/sticker-map-data/main/images/rec3YDmyTnBQkO6z1.webp",
        "location": "43.0449358,-87.9146551",
        "location_format": "address_text",
        "location_source": "airtable_address_geocoded",
        "record_id": "rec3YDmyTnBQkO6z1"
      },
      "type": "Feature"
    },
    {
      "geometry": {
        "coordinates": [
          -87.9140876,
          43.0404592
        ],
        "type": "Point"
      },
      "properties": {
        "caption": "George web",
        "image": "https://raw.githubusercontent.com/justhappytobehereco/sticker-map-data/main/images/recpthgpRGxS4U1cd.webp",
        "location": "43.0406118,-87.9144053",
        "location_format": "address_text",
        "location_source": "airtable_address_geocoded",
        "record_id": "recpthgpRGxS4U1cd"
      },
      "type": "Feature"
    },
    {
      "geometry": {
        "coordinates": [
          -87.9140788,
          43.0407335
        ],
        "type": "Point"
      },
      "properties": {
        "caption": "George web",
        "image": "https://raw.githubusercontent.com/justhappytobehereco/sticker-map-data/main/images/recFIN8CGDltBn3Vo.webp",
        "location": "43.0406696,-87.9143450",
        "location_format": "address_text",
        "location_source": "airtable_address_geocoded",
        "record_id": "recFIN8CGDltBn3Vo"
      },
      "type": "Feature"
    },
    {
      "geometry": {
        "coordinates": [
          -87.9140876,
          43.0404592
        ],
        "type": "Point"
      },
      "properties": {
        "caption": "George web",
        "image": "https://raw.githubusercontent.com/justhappytobehereco/sticker-map-data/main/images/recpPiDLWcWC1Kpwj.webp",
        "location": "43.0405201,-87.9144147",
        "location_format": "address_text",
        "location_source": "airtable_address_geocoded",
        "record_id": "recpPiDLWcWC1Kpwj"
      },
      "type": "Feature"
    },
    {
      "geometry": {
        "coordinates": [
          -87.9140876,
          43.0404592
        ],
        "type": "Point"
      },
      "properties": {
        "caption": "George web",
        "image": "https://raw.githubusercontent.com/justhappytobehereco/sticker-map-data/main/images/rec8nnNhhE32reGOs.webp",
        "location": "43.0403888,-87.9143940",
        "location_format": "address_text",
        "location_source": "airtable_address_geocoded",
        "record_id": "rec8nnNhhE32reGOs"
      },
      "type": "Feature"
    },
    {
      "geometry": {
        "coordinates": [
          -87.9143544,
          43.0392491
        ],
        "type": "Point"
      },
      "properties": {
        "caption": "Canary coffee",
        "image": "https://raw.githubusercontent.com/justhappytobehereco/sticker-map-data/main/images/recqrecsHQWdMqlWh.webp",
        "location": "43.0392986,-87.9144289",
        "location_format": "address_text",
        "location_source": "airtable_address_geocoded",
        "record_id": "recqrecsHQWdMqlWh"
      },
      "type": "Feature"
    },
    {
      "geometry": {
        "coordinates": [
          -108.0448236,
          44.4882454
        ],
        "type": "Point"
      },
      "properties": {
        "caption": "Disc Golf Course (on sign)",
        "image": "https://raw.githubusercontent.com/justhappytobehereco/sticker-map-data/main/images/recvEaJ8oKncGmOso.webp",
        "location": "44.4887248,-108.0446936",
        "location_format": "address_text",
        "location_source": "airtable_address_geocoded",
        "record_id": "recvEaJ8oKncGmOso"
      },
      "type": "Feature"
    },
    {
      "geometry": {
        "coordinates": [
          -87.8831246,
          43.0762581
        ],
        "type": "Point"
      },
      "properties": {
        "caption": "Caution Sign",
        "image": "https://raw.githubusercontent.com/justhappytobehereco/sticker-map-data/main/images/recPOZH4Ie94vJEHJ.webp",
        "location": "43.0764676,-87.8825596",
        "location_format": "address_text",
        "location_source": "airtable_address_geocoded",
        "record_id": "recPOZH4Ie94vJEHJ"
      },
      "type": "Feature"
    },
    {
      "geometry": {
        "coordinates": [
          -87.8817684,
          43.0762373
        ],
        "type": "Point"
      },
      "properties": {
        "caption": "Can",
        "image": "https://raw.githubusercontent.com/justhappytobehereco/sticker-map-data/main/images/recgE8Kl4HAZ6BOnF.webp",
        "location": "43.0764494,-87.8816241",
        "location_format": "address_text",
        "location_source": "airtable_address_geocoded",
        "record_id": "recgE8Kl4HAZ6BOnF"
      },
      "type": "Feature"
    },
    {
      "geometry": {
        "coordinates": [
          -87.8831246,
          43.0762581
        ],
        "type": "Point"
      },
      "properties": {
        "caption": "Can",
        "image": "https://raw.githubusercontent.com/justhappytobehereco/sticker-map-data/main/images/rectJIqLQrTYYVOdA.webp",
        "location": "43.0764681,-87.8826603",
        "location_format": "address_text",
        "location_source": "airtable_address_geocoded",
        "record_id": "rectJIqLQrTYYVOdA"
      },
      "type": "Feature"
    },
    {
      "geometry": {
        "coordinates": [
          -87.8811756,
          43.0764007
        ],
        "type": "Point"
      },
      "properties": {
        "caption": "pls recycle",
        "image": "https://raw.githubusercontent.com/justhappytobehereco/sticker-map-data/main/images/recENCXQ0YWDce3YF.webp",
        "location": "43.0764123,-87.8811431",
        "location_format": "address_text",
        "location_source": "airtable_address_geocoded",
        "record_id": "recENCXQ0YWDce3YF"
      },
      "type": "Feature"
    },
    {
      "geometry": {
        "coordinates": [
          -87.8804654,
          43.0766907
        ],
        "type": "Point"
      },
      "properties": {
        "caption": "Can",
        "image": "https://raw.githubusercontent.com/justhappytobehereco/sticker-map-data/main/images/rec16uXDP5NoRfZbG.webp",
        "location": "43.0765382,-87.8806673",
        "location_format": "address_text",
        "location_source": "airtable_address_geocoded",
        "record_id": "rec16uXDP5NoRfZbG"
      },
      "type": "Feature"
    },
    {
      "geometry": {
        "coordinates": [
          -87.8810272,
          43.0757678
        ],
        "type": "Point"
      },
      "properties": {
        "caption": "Other trashcan",
        "image": "https://raw.githubusercontent.com/justhappytobehereco/sticker-map-data/main/images/recnYsdsGJhW2kl70.webp",
        "location": "43.0758346,-87.8807514",
        "location_format": "address_text",
        "location_source": "airtable_address_geocoded",
        "record_id": "recnYsdsGJhW2kl70"
      },
      "type": "Feature"
    },
    {
      "geometry": {
        "coordinates": [
          -87.880269,
          43.0762796
        ],
        "type": "Point"
      },
      "properties": {
        "caption": "Can",
        "image": "https://raw.githubusercontent.com/justhappytobehereco/sticker-map-data/main/images/rec36S8CehxlX43GT.webp",
        "location": "43.0763280,-87.8802968",
        "location_format": "address_text",
        "location_source": "airtable_address_geocoded",
        "record_id": "rec36S8CehxlX43GT"
      },
      "type": "Feature"
    },
    {
      "geometry": {
        "coordinates": [
          -87.880816,
          43.0757462
        ],
        "type": "Point"
      },
      "properties": {
        "caption": "Garbage can",
        "image": "https://raw.githubusercontent.com/justhappytobehereco/sticker-map-data/main/images/rec63gsP01zj5Kujv.webp",
        "location": "43.0756974,-87.8808605",
        "location_format": "address_text",
        "location_source": "airtable_address_geocoded",
        "record_id": "rec63gsP01zj5Kujv"
      },
      "type": "Feature"
    },
    {
      "geometry": {
        "coordinates": [
          -87.8805163,
          43.0755435
        ],
        "type": "Point"
      },
      "properties": {
        "caption": "Can",
        "image": "https://raw.githubusercontent.com/justhappytobehereco/sticker-map-data/main/images/recNvPEBlDNw9dB6D.webp",
        "location": "43.0758401,-87.8805676",
        "location_format": "address_text",
        "location_source": "airtable_address_geocoded",
        "record_id": "recNvPEBlDNw9dB6D"
      },
      "type": "Feature"
    },
    {
      "geometry": {
        "coordinates": [
          -87.8805163,
          43.0755435
        ],
        "type": "Point"
      },
      "properties": {
        "caption": "garbage",
        "image": "https://raw.githubusercontent.com/justhappytobehereco/sticker-map-data/main/images/recTixdDSWjx8uejB.webp",
        "location": "43.0756872,-87.8805301",
        "location_format": "address_text",
        "location_source": "airtable_address_geocoded",
        "record_id": "recTixdDSWjx8uejB"
      },
      "type": "Feature"
    },
    {
      "geometry": {
        "coordinates": [
          -87.8795016,
          43.0765842
        ],
        "type": "Point"
      },
      "properties": {
        "caption": "Can",
        "image": "https://raw.githubusercontent.com/justhappytobehereco/sticker-map-data/main/images/recEooKEyCsHIdoMZ.webp",
        "location": "43.0764274,-87.8795072",
        "location_format": "address_text",
        "location_source": "airtable_address_geocoded",
        "record_id": "recEooKEyCsHIdoMZ"
      },
      "type": "Feature"
    },
    {
      "geometry": {
        "coordinates": [
          -87.8790616,
          43.0766431
        ],
        "type": "Point"
      },
      "properties": {
        "caption": "bike rack",
        "image": "https://raw.githubusercontent.com/justhappytobehereco/sticker-map-data/main/images/rec9WWVlLvyoXGrsN.webp",
        "location": "43.0765940,-87.8790043",
        "location_format": "address_text",
        "location_source": "airtable_address_geocoded",
        "record_id": "rec9WWVlLvyoXGrsN"
      },
      "type": "Feature"
    },
    {
      "geometry": {
        "coordinates": [
          -87.8790616,
          43.0766431
        ],
        "type": "Point"
      },
      "properties": {
        "caption": "Can",
        "image": "https://raw.githubusercontent.com/justhappytobehereco/sticker-map-data/main/images/recac50yUS8F3YBns.webp",
        "location": "43.0766265,-87.8790138",
        "location_format": "address_text",
        "location_source": "airtable_address_geocoded",
        "record_id": "recac50yUS8F3YBns"
      },
      "type": "Feature"
    },
    {
      "geometry": {
        "coordinates": [
          -87.879897,
          43.0775685
        ],
        "type": "Point"
      },
      "properties": {
        "caption": "Landfill",
        "image": "https://raw.githubusercontent.com/justhappytobehereco/sticker-map-data/main/images/reczJw7h8BGu2Pwtj.webp",
        "location": "43.0775549,-87.8793964",
        "location_format": "address_text",
        "location_source": "airtable_address_geocoded",
        "record_id": "reczJw7h8BGu2Pwtj"
      },
      "type": "Feature"
    },
    {
      "geometry": {
        "coordinates": [
          -87.879897,
          43.0775685
        ],
        "type": "Point"
      },
      "properties": {
        "caption": "Can",
        "image": "https://raw.githubusercontent.com/justhappytobehereco/sticker-map-data/main/images/recKdWuTABR8rtTNQ.webp",
        "location": "43.0775477,-87.8798515",
        "location_format": "address_text",
        "location_source": "airtable_address_geocoded",
        "record_id": "recKdWuTABR8rtTNQ"
      },
      "type": "Feature"
    },
    {
      "geometry": {
        "coordinates": [
          -87.8800184,
          43.0775386
        ],
        "type": "Point"
      },
      "properties": {
        "caption": "Can",
        "image": "https://raw.githubusercontent.com/justhappytobehereco/sticker-map-data/main/images/recNcYGD5mv8rS2bD.webp",
        "location": "43.0777232,-87.8800345",
        "location_format": "address_text",
        "location_source": "airtable_address_geocoded",
        "record_id": "recNcYGD5mv8rS2bD"
      },
      "type": "Feature"
    },
    {
      "geometry": {
        "coordinates": [
          -87.8804856,
          43.0776759
        ],
        "type": "Point"
      },
      "properties": {
        "caption": "light pole",
        "image": "https://raw.githubusercontent.com/justhappytobehereco/sticker-map-data/main/images/recVqm6qQm8erkmfx.webp",
        "location": "43.0776881,-87.8806651",
        "location_format": "address_text",
        "location_source": "airtable_address_geocoded",
        "record_id": "recVqm6qQm8erkmfx"
      },
      "type": "Feature"
    },
    {
      "geometry": {
        "coordinates": [
          -87.8799654,
          43.0798224
        ],
        "type": "Point"
      },
      "properties": {
        "caption": "Sign",
        "image": "https://raw.githubusercontent.com/justhappytobehereco/sticker-map-data/main/images/recr8BHDM8YcuaJ9P.webp",
        "location": "43.0796142,-87.8800925",
        "location_format": "address_text",
        "location_source": "airtable_address_geocoded",
        "record_id": "recr8BHDM8YcuaJ9P"
      },
      "type": "Feature"
    },
    {
      "geometry": {
        "coordinates": [
          -87.8799654,
          43.0798224
        ],
        "type": "Point"
      },
      "properties": {
        "caption": "Can",
        "image": "https://raw.githubusercontent.com/justhappytobehereco/sticker-map-data/main/images/recBdhgPvW7Jmu2wl.webp",
        "location": "43.0797585,-87.8799722",
        "location_format": "address_text",
        "location_source": "airtable_address_geocoded",
        "record_id": "recBdhgPvW7Jmu2wl"
      },
      "type": "Feature"
    },
    {
      "geometry": {
        "coordinates": [
          -87.8817807,
          43.0792979
        ],
        "type": "Point"
      },
      "properties": {
        "caption": "Can",
        "image": "https://raw.githubusercontent.com/justhappytobehereco/sticker-map-data/main/images/recuU11HBBAUi3Pe4.webp",
        "location": "43.0797329,-87.8811263",
        "location_format": "address_text",
        "location_source": "airtable_address_geocoded",
        "record_id": "recuU11HBBAUi3Pe4"
      },
      "type": "Feature"
    },
    {
      "geometry": {
        "coordinates": [
          -87.8817807,
          43.0792979
        ],
        "type": "Point"
      },
      "properties": {
        "caption": "basketball hoop",
        "image": "https://raw.githubusercontent.com/justhappytobehereco/sticker-map-data/main/images/recVzJKSIvwChMMYX.webp",
        "location": "43.0800104,-87.8818895",
        "location_format": "address_text",
        "location_source": "airtable_address_geocoded",
        "record_id": "recVzJKSIvwChMMYX"
      },
      "type": "Feature"
    },
    {
      "geometry": {
        "coordinates": [
          -87.882465,
          43.0791117
        ],
        "type": "Point"
      },
      "properties": {
        "caption": "one way sign",
        "image": "https://raw.githubusercontent.com/justhappytobehereco/sticker-map-data/main/images/recGia5EVUzE0Hxc7.webp",
        "location": "43.0792033,-87.8825868",
        "location_format": "address_text",
        "location_source": "airtable_address_geocoded",
        "record_id": "recGia5EVUzE0Hxc7"
      },
      "type": "Feature"
    },
    {
      "geometry": {
        "coordinates": [
          -87.882465,
          43.0791117
        ],
        "type": "Point"
      },
      "properties": {
        "caption": "Can",
        "image": "https://raw.githubusercontent.com/justhappytobehereco/sticker-map-data/main/images/recl5tv3M41mv9C3U.webp",
        "location": "43.0789541,-87.8825199",
        "location_format": "address_text",
        "location_source": "airtable_address_geocoded",
        "record_id": "recl5tv3M41mv9C3U"
      },
      "type": "Feature"
    },
    {
      "geometry": {
        "coordinates": [
          -87.8826281,
          43.0776883
        ],
        "type": "Point"
      },
      "properties": {
        "caption": "Pole",
        "image": "https://raw.githubusercontent.com/justhappytobehereco/sticker-map-data/main/images/recSUHjQKmEgNIJbG.webp",
        "location": "43.0776815,-87.8826620",
        "location_format": "address_text",
        "location_source": "airtable_address_geocoded",
        "record_id": "recSUHjQKmEgNIJbG"
      },
      "type": "Feature"
    },
    {
      "geometry": {
        "coordinates": [
          -87.8826281,
          43.0776883
        ],
        "type": "Point"
      },
      "properties": {
        "caption": "Can",
        "image": "https://raw.githubusercontent.com/justhappytobehereco/sticker-map-data/main/images/recTaLPA3nG2XEFRP.webp",
        "location": "43.0777098,-87.8825161",
        "location_format": "address_text",
        "location_source": "airtable_address_geocoded",
        "record_id": "recTaLPA3nG2XEFRP"
      },
      "type": "Feature"
    },
    {
      "geometry": {
        "coordinates": [
          -87.8826281,
          43.0776883
        ],
        "type": "Point"
      },
      "properties": {
        "caption": "bus stop bench",
        "image": "https://raw.githubusercontent.com/justhappytobehereco/sticker-map-data/main/images/recs0SQsJhTfBvlza.webp",
        "location": "43.0776655,-87.8825818",
        "location_format": "address_text",
        "location_source": "airtable_address_geocoded",
        "record_id": "recs0SQsJhTfBvlza"
      },
      "type": "Feature"
    },
    {
      "geometry": {
        "coordinates": [
          -87.8815316,
          43.0775445
        ],
        "type": "Point"
      },
      "properties": {
        "caption": "Can",
        "image": "https://raw.githubusercontent.com/justhappytobehereco/sticker-map-data/main/images/recuMSxHrFlu10yIM.webp",
        "location": "43.0777280,-87.8816267",
        "location_format": "address_text",
        "location_source": "airtable_address_geocoded",
        "record_id": "recuMSxHrFlu10yIM"
      },
      "type": "Feature"
    },
    {
      "geometry": {
        "coordinates": [
          -87.8780413,
          43.0768632
        ],
        "type": "Point"
      },
      "properties": {
        "caption": "Pole",
        "image": "https://raw.githubusercontent.com/justhappytobehereco/sticker-map-data/main/images/recfKWIypJhjyDMJS.webp",
        "location": "43.0769354,-87.8780416",
        "location_format": "address_text",
        "location_source": "airtable_address_geocoded",
        "record_id": "recfKWIypJhjyDMJS"
      },
      "type": "Feature"
    },
    {
      "geometry": {
        "coordinates": [
          -87.8776863,
          43.0754163
        ],
        "type": "Point"
      },
      "properties": {
        "caption": "bus stop garbage",
        "image": "https://raw.githubusercontent.com/justhappytobehereco/sticker-map-data/main/images/recVFuD2W5Oe91A8F.webp",
        "location": "43.0756627,-87.8779346",
        "location_format": "address_text",
        "location_source": "airtable_address_geocoded",
        "record_id": "recVFuD2W5Oe91A8F"
      },
      "type": "Feature"
    },
    {
      "geometry": {
        "coordinates": [
          -87.8780414,
          43.0749398
        ],
        "type": "Point"
      },
      "properties": {
        "caption": "bus stop",
        "image": "https://raw.githubusercontent.com/justhappytobehereco/sticker-map-data/main/images/recvygDArSz06Ibnb.webp",
        "location": "43.0749574,-87.8780312",
        "location_format": "address_text",
        "location_source": "airtable_address_geocoded",
        "record_id": "recvygDArSz06Ibnb"
      },
      "type": "Feature"
    },
    {
      "geometry": {
        "coordinates": [
          -87.8789889,
          43.0747534
        ],
        "type": "Point"
      },
      "properties": {
        "caption": "garbage",
        "image": "https://raw.githubusercontent.com/justhappytobehereco/sticker-map-data/main/images/recWykRlabFkpfqey.webp",
        "location": "43.0747928,-87.8788359",
        "location_format": "address_text",
        "location_source": "airtable_address_geocoded",
        "record_id": "recWykRlabFkpfqey"
      },
      "type": "Feature"
    },
    {
      "geometry": {
        "coordinates": [
          -87.8789889,
          43.0747534
        ],
        "type": "Point"
      },
      "properties": {
        "caption": "bench",
        "image": "https://raw.githubusercontent.com/justhappytobehereco/sticker-map-data/main/images/recb8rBr7ndMdSlk6.webp",
        "location": "43.0748007,-87.8786827",
        "location_format": "address_text",
        "location_source": "airtable_address_geocoded",
        "record_id": "recb8rBr7ndMdSlk6"
      },
      "type": "Feature"
    },
    {
      "geometry": {
        "coordinates": [
          -87.8809138,
          43.0747699
        ],
        "type": "Point"
      },
      "properties": {
        "caption": "Can",
        "image": "https://raw.githubusercontent.com/justhappytobehereco/sticker-map-data/main/images/recYAY4Hg4Yv6UikN.webp",
        "location": "43.0747777,-87.8810021",
        "location_format": "address_text",
        "location_source": "airtable_address_geocoded",
        "record_id": "recYAY4Hg4Yv6UikN"
      },
      "type": "Feature"
    },
    {
      "geometry": {
        "coordinates": [
          -87.8809138,
          43.0747699
        ],
        "type": "Point"
      },
      "properties": {
        "caption": "garbage",
        "image": "https://raw.githubusercontent.com/justhappytobehereco/sticker-map-data/main/images/reczHQHSKI8i3yPdQ.webp",
        "location": "43.0747642,-87.8807603",
        "location_format": "address_text",
        "location_source": "airtable_address_geocoded",
        "record_id": "reczHQHSKI8i3yPdQ"
      },
      "type": "Feature"
    },
    {
      "geometry": {
        "coordinates": [
          -87.8817671,
          43.07506
        ],
        "type": "Point"
      },
      "properties": {
        "caption": "Can",
        "image": "https://raw.githubusercontent.com/justhappytobehereco/sticker-map-data/main/images/rectAceGpxz2NvKja.webp",
        "location": "43.0747813,-87.8820146",
        "location_format": "address_text",
        "location_source": "airtable_address_geocoded",
        "record_id": "rectAceGpxz2NvKja"
      },
      "type": "Feature"
    },
    {
      "geometry": {
        "coordinates": [
          -87.8825175,
          43.0747606
        ],
        "type": "Point"
      },
      "properties": {
        "caption": "can",
        "image": "https://raw.githubusercontent.com/justhappytobehereco/sticker-map-data/main/images/rectUNFPS7Lv0mzoM.webp",
        "location": "43.0747884,-87.8824146",
        "location_format": "address_text",
        "location_source": "airtable_address_geocoded",
        "record_id": "rectUNFPS7Lv0mzoM"
      },
      "type": "Feature"
    },
    {
      "geometry": {
        "coordinates": [
          -87.8827318,
          43.0748109
        ],
        "type": "Point"
      },
      "properties": {
        "caption": "Light",
        "image": "https://raw.githubusercontent.com/justhappytobehereco/sticker-map-data/main/images/recMZ6BZiyDNibVSd.webp",
        "location": "43.0747615,-87.8827496",
        "location_format": "address_text",
        "location_source": "airtable_address_geocoded",
        "record_id": "recMZ6BZiyDNibVSd"
      },
      "type": "Feature"
    },
    {
      "geometry": {
        "coordinates": [
          -87.8826627,
          43.0743591
        ],
        "type": "Point"
      },
      "properties": {
        "caption": "Walk",
        "image": "https://raw.githubusercontent.com/justhappytobehereco/sticker-map-data/main/images/rec0vV487xZmZ3aFB.webp",
        "location": "43.0746382,-87.8827462",
        "location_format": "address_text",
        "location_source": "airtable_address_geocoded",
        "record_id": "rec0vV487xZmZ3aFB"
      },
      "type": "Feature"
    },
    {
      "geometry": {
        "coordinates": [
          -87.8826627,
          43.0743591
        ],
        "type": "Point"
      },
      "properties": {
        "caption": "Walk",
        "image": "https://raw.githubusercontent.com/justhappytobehereco/sticker-map-data/main/images/rec0KEcvB544V2U0P.webp",
        "location": "43.0745487,-87.8827542",
        "location_format": "address_text",
        "location_source": "airtable_address_geocoded",
        "record_id": "rec0KEcvB544V2U0P"
      },
      "type": "Feature"
    },
    {
      "geometry": {
        "coordinates": [
          -87.883309,
          43.0743968
        ],
        "type": "Point"
      },
      "properties": {
        "caption": "Walk",
        "image": "https://raw.githubusercontent.com/justhappytobehereco/sticker-map-data/main/images/recPB9bNkF7AH0bDu.webp",
        "location": "43.0745425,-87.8830548",
        "location_format": "address_text",
        "location_source": "airtable_address_geocoded",
        "record_id": "recPB9bNkF7AH0bDu"
      },
      "type": "Feature"
    },
    {
      "geometry": {
        "coordinates": [
          -87.8839651,
          43.0743274
        ],
        "type": "Point"
      },
      "properties": {
        "caption": "Box",
        "image": "https://raw.githubusercontent.com/justhappytobehereco/sticker-map-data/main/images/recIzGi2FR7aiDdSZ.webp",
        "location": "43.0744589,-87.8842791",
        "location_format": "address_text",
        "location_source": "airtable_address_geocoded",
        "record_id": "recIzGi2FR7aiDdSZ"
      },
      "type": "Feature"
    },
    {
      "geometry": {
        "coordinates": [
          -88.0619681,
          44.5009705
        ],
        "type": "Point"
      },
      "properties": {
        "caption": "Section 108 Row 13 Seat 6",
        "image": "https://raw.githubusercontent.com/justhappytobehereco/sticker-map-data/main/images/recclSMsYia53Gc86.webp",
        "location": "44.5018586,-88.0627583",
        "location_format": "address_text",
        "location_source": "airtable_address_geocoded",
        "record_id": "recclSMsYia53Gc86"
      },
      "type": "Feature"
    },
    {
      "geometry": {
        "coordinates": [
          -105.0770297,
          40.5878884
        ],
        "type": "Point"
      },
      "properties": {
        "caption": "Electrical Box",
        "image": "https://raw.githubusercontent.com/justhappytobehereco/sticker-map-data/main/images/recNoL3BmVxmLtWIc.webp",
        "location": "40.5877800,-105.0768600",
        "location_format": "address_text",
        "location_source": "airtable_address_geocoded",
        "record_id": "recNoL3BmVxmLtWIc"
      },
      "type": "Feature"
    },
    {
      "geometry": {
        "coordinates": [
          -105.5232017,
          40.3760212
        ],
        "type": "Point"
      },
      "properties": {
        "caption": "The Slab Pole",
        "image": "https://raw.githubusercontent.com/justhappytobehereco/sticker-map-data/main/images/recvlwxcEar0FM9zH.webp",
        "location": "40.3761600,-105.5231900",
        "location_format": "address_text",
        "location_source": "airtable_address_geocoded",
        "record_id": "recvlwxcEar0FM9zH"
      },
      "type": "Feature"
    },
    {
      "geometry": {
        "coordinates": [
          140.6986825,
          42.8623982
        ],
        "type": "Point"
      },
      "properties": {
        "caption": "Communal Ash Tray with view of Mount Yotei",
        "image": "https://raw.githubusercontent.com/justhappytobehereco/sticker-map-data/main/images/recqxla1Yc1a0Q1nN.webp",
        "location": "42.8620000,140.6988000",
        "location_format": "address_text",
        "location_source": "airtable_address_geocoded",
        "record_id": "recqxla1Yc1a0Q1nN"
      },
      "type": "Feature"
    },
    {
      "geometry": {
        "coordinates": [
          140.7201557,
          42.8645016
        ],
        "type": "Point"
      },
      "properties": {
        "caption": "On the door of \"The Fridge\"",
        "image": "https://raw.githubusercontent.com/justhappytobehereco/sticker-map-data/main/images/recRPdV2FvAerYXPc.webp",
        "location": "42.8644400,140.7200800",
        "location_format": "address_text",
        "location_source": "airtable_address_geocoded",
        "record_id": "recRPdV2FvAerYXPc"
      },
      "type": "Feature"
    },
    {
      "geometry": {
        "coordinates": [
          139.6986021,
          35.6821441
        ],
        "type": "Point"
      },
      "properties": {
        "caption": "Shibuya Record Store",
        "image": "https://raw.githubusercontent.com/justhappytobehereco/sticker-map-data/main/images/recfJlMtViFuUF91d.webp",
        "location": "35.6820000,139.6986000",
        "location_format": "address_text",
        "location_source": "airtable_address_geocoded",
        "record_id": "recfJlMtViFuUF91d"
      },
      "type": "Feature"
    },
    {
      "geometry": {
        "coordinates": [
          -121.7083391,
          45.3297006
        ],
        "type": "Point"
      },
      "properties": {
        "caption": "Timberline Lodge Electrical Box",
        "image": "https://raw.githubusercontent.com/justhappytobehereco/sticker-map-data/main/images/rec8bD1PlKa9IlwCG.webp",
        "location": "45.3305600,-121.7090900",
        "location_format": "address_text",
        "location_source": "airtable_address_geocoded",
        "record_id": "rec8bD1PlKa9IlwCG"
      },
      "type": "Feature"
    },
    {
      "geometry": {
        "coordinates": [
          -122.3398198,
          47.6087292
        ],
        "type": "Point"
      },
      "properties": {
        "caption": "Public Market Pole",
        "image": "https://raw.githubusercontent.com/justhappytobehereco/sticker-map-data/main/images/recTTiHddCFAjHln7.webp",
        "location": "47.6087200,-122.3398300",
        "location_format": "address_text",
        "location_source": "airtable_address_geocoded",
        "record_id": "recTTiHddCFAjHln7"
      },
      "type": "Feature"
    },
    {
      "geometry": {
        "coordinates": [
          2.1587527777777775,
          41.41206666666667
        ],
        "type": "Point"
      },
      "properties": {
        "caption": "The sticker is placed inside the nook on the wall!",
        "image": "https://raw.githubusercontent.com/justhappytobehereco/sticker-map-data/main/images/rec0eoQ5rJUK1nUEC.webp",
        "location": "41.412067, 2.158753",
        "location_format": "latitude_longitude",
        "location_source": "photo_exif_gps",
        "record_id": "rec0eoQ5rJUK1nUEC"
      },
      "type": "Feature"
    },
    {
      "geometry": {
        "coordinates": [
          -81.3834138888889,
          19.296708333333335
        ],
        "type": "Point"
      },
      "properties": {
        "caption": "Smoking kills",
        "image": "https://raw.githubusercontent.com/justhappytobehereco/sticker-map-data/main/images/rec9S0rF3LmgjNrs1.webp",
        "location": "19.296708, -81.383414",
        "location_format": "latitude_longitude",
        "location_source": "photo_exif_gps",
        "record_id": "rec9S0rF3LmgjNrs1"
      },
      "type": "Feature"
    },
    {
      "geometry": {
        "coordinates": [
          2.171897222222222,
          41.383069444444445
        ],
        "type": "Point"
      },
      "properties": {
        "caption": "On a pole in front of the wash station!",
        "image": "https://raw.githubusercontent.com/justhappytobehereco/sticker-map-data/main/images/recfAWEnJmEMweOXD.webp",
        "location": "41.383069, 2.171897",
        "location_format": "latitude_longitude",
        "location_source": "photo_exif_gps",
        "record_id": "recfAWEnJmEMweOXD"
      },
      "type": "Feature"
    },
    {
      "geometry": {
        "coordinates": [
          2.1667694444444443,
          41.36475277777778
        ],
        "type": "Point"
      },
      "properties": {
        "caption": "The sticker is placed just a little right of the graffiti man!",
        "image": "https://raw.githubusercontent.com/justhappytobehereco/sticker-map-data/main/images/rec2AceszbBAFcxIN.webp",
        "location": "41.364753, 2.166769",
        "location_format": "latitude_longitude",
        "location_source": "photo_exif_gps",
        "record_id": "rec2AceszbBAFcxIN"
      },
      "type": "Feature"
    },
    {
      "geometry": {
        "coordinates": [
          -87.91143055555555,
          43.026177777777775
        ],
        "type": "Point"
      },
      "properties": {
        "caption": "Dumpster",
        "image": "https://raw.githubusercontent.com/justhappytobehereco/sticker-map-data/main/images/recfQUl3vAe3CBRqO.webp",
        "location": "43.026178, -87.911431",
        "location_format": "latitude_longitude",
        "location_source": "photo_exif_gps",
        "record_id": "recfQUl3vAe3CBRqO"
      },
      "type": "Feature"
    },
    {
      "geometry": {
        "coordinates": [
          -88.04672222222221,
          43.001325
        ],
        "type": "Point"
      },
      "properties": {
        "caption": "Oscars",
        "image": "https://raw.githubusercontent.com/justhappytobehereco/sticker-map-data/main/images/recT0H3nznF9E7O7Y.webp",
        "location": "43.001325, -88.046722",
        "location_format": "latitude_longitude",
        "location_source": "photo_exif_gps",
        "record_id": "recT0H3nznF9E7O7Y"
      },
      "type": "Feature"
    },
    {
      "geometry": {
        "coordinates": [
          -88.04673888888888,
          43.00131944444445
        ],
        "type": "Point"
      },
      "properties": {
        "caption": "Good luck",
        "image": "https://raw.githubusercontent.com/justhappytobehereco/sticker-map-data/main/images/rec6g38lnl89XRKWp.webp",
        "location": "43.001319, -88.046739",
        "location_format": "latitude_longitude",
        "location_source": "photo_exif_gps",
        "record_id": "rec6g38lnl89XRKWp"
      },
      "type": "Feature"
    },
    {
      "geometry": {
        "coordinates": [
          -93.25344722222222,
          44.982525
        ],
        "type": "Point"
      },
      "properties": {
        "caption": "Little hook on the trail",
        "image": "https://raw.githubusercontent.com/justhappytobehereco/sticker-map-data/main/images/recWFrJJm7zcpp9CE.webp",
        "location": "44.982525, -93.253447",
        "location_format": "latitude_longitude",
        "location_source": "photo_exif_gps",
        "record_id": "recWFrJJm7zcpp9CE"
      },
      "type": "Feature"
    },
    {
      "geometry": {
        "coordinates": [
          -93.25612777777778,
          44.98827777777778
        ],
        "type": "Point"
      },
      "properties": {
        "caption": "Back of the sign",
        "image": "https://raw.githubusercontent.com/justhappytobehereco/sticker-map-data/main/images/recaG7b3k6VxXcDsm.webp",
        "location": "44.988278, -93.256128",
        "location_format": "latitude_longitude",
        "location_source": "photo_exif_gps",
        "record_id": "recaG7b3k6VxXcDsm"
      },
      "type": "Feature"
    },
    {
      "geometry": {
        "coordinates": [
          -93.25453055555556,
          44.99019722222222
        ],
        "type": "Point"
      },
      "properties": {
        "caption": "Transformer",
        "image": "https://raw.githubusercontent.com/justhappytobehereco/sticker-map-data/main/images/rec9OdKAcVaXO7pAo.webp",
        "location": "44.990197, -93.254531",
        "location_format": "latitude_longitude",
        "location_source": "photo_exif_gps",
        "record_id": "rec9OdKAcVaXO7pAo"
      },
      "type": "Feature"
    },
    {
      "geometry": {
        "coordinates": [
          -93.28505833333332,
          44.94859722222222
        ],
        "type": "Point"
      },
      "properties": {
        "caption": "Rat boy pole",
        "image": "https://raw.githubusercontent.com/justhappytobehereco/sticker-map-data/main/images/rec34lDcvCBHWBz1t.webp",
        "location": "44.948597, -93.285058",
        "location_format": "latitude_longitude",
        "location_source": "photo_exif_gps",
        "record_id": "rec34lDcvCBHWBz1t"
      },
      "type": "Feature"
    },
    {
      "geometry": {
        "coordinates": [
          -122.66094166666667,
          45.571561111111116
        ],
        "type": "Point"
      },
      "properties": {
        "caption": "Transformer",
        "image": "https://raw.githubusercontent.com/justhappytobehereco/sticker-map-data/main/images/recm599ElRZTgHxmq.webp",
        "location": "45.571561, -122.660942",
        "location_format": "latitude_longitude",
        "location_source": "photo_exif_gps",
        "record_id": "recm599ElRZTgHxmq"
      },
      "type": "Feature"
    },
    {
      "type": "Feature",
      "geometry": {
        "type": "Point",
        "coordinates": [
          -118.47104722222223,
          33.98436388888889
        ]
      },
      "properties": {
        "caption": "On the wall",
        "image": "https://raw.githubusercontent.com/justhappytobehereco/sticker-map-data/main/images/recsfCefwcARGxbj2.webp",
        "record_id": "recsfCefwcARGxbj2",
        "location": "33.984364, -118.471047",
        "location_source": "photo_exif_gps",
        "location_format": "latitude_longitude"
      }
    },
    {
      "type": "Feature",
      "geometry": {
        "type": "Point",
        "coordinates": [
          -88.02360555555555,
          17.745222222222225
        ]
      },
      "properties": {
        "caption": "Caye caulker belize",
        "image": "https://raw.githubusercontent.com/justhappytobehereco/sticker-map-data/main/images/reci4QuMqRPv5nr7T.webp",
        "record_id": "reci4QuMqRPv5nr7T",
        "location": "17.745222, -88.023606",
        "location_source": "photo_exif_gps",
        "location_format": "latitude_longitude"
      }
    },
    {
      "type": "Feature",
      "geometry": {
        "type": "Point",
        "coordinates": [
          -73.829689,
          40.758475
        ]
      },
      "properties": {
        "caption": "on mail box next to xing fu tea",
        "image": "https://raw.githubusercontent.com/justhappytobehereco/sticker-map-data/main/images/recbIY4cqi2xNLByF.webp",
        "record_id": "recbIY4cqi2xNLByF",
        "location": "40-52 Main St\nFlushing, NY  11354\nUnited States",
        "location_source": "airtable_address_geocoded",
        "location_format": "address_text"
      }
    },
    {
      "type": "Feature",
      "geometry": {
        "type": "Point",
        "coordinates": [
          -105.20901388888889,
          39.671191666666665
        ]
      },
      "properties": {
        "caption": "Top of geologic trail at redrocks CO",
        "image": "https://raw.githubusercontent.com/justhappytobehereco/sticker-map-data/main/images/recIXh0zDmVlGF2HP.webp",
        "record_id": "recIXh0zDmVlGF2HP",
        "location": "39.671192, -105.209014",
        "location_source": "photo_exif_gps",
        "location_format": "latitude_longitude"
      }
    },
    {
      "type": "Feature",
      "geometry": {
        "type": "Point",
        "coordinates": [
          -117.25496666666666,
          32.79452777777777
        ]
      },
      "properties": {
        "caption": "7 eleven sign",
        "image": "https://raw.githubusercontent.com/justhappytobehereco/sticker-map-data/main/images/recBCuGhvZfn79fQx.webp",
        "record_id": "recBCuGhvZfn79fQx",
        "location": "32.794528, -117.254967",
        "location_source": "photo_exif_gps",
        "location_format": "latitude_longitude"
      }
    },
    {
      "type": "Feature",
      "geometry": {
        "type": "Point",
        "coordinates": [
          -117.25579166666667,
          32.79601944444444
        ]
      },
      "properties": {
        "caption": "High voltage in the alley",
        "image": "https://raw.githubusercontent.com/justhappytobehereco/sticker-map-data/main/images/rec5eZDul6gpuT5dQ.webp",
        "record_id": "rec5eZDul6gpuT5dQ",
        "location": "32.796019, -117.255792",
        "location_source": "photo_exif_gps",
        "location_format": "latitude_longitude"
      }
    },
    {
      "type": "Feature",
      "geometry": {
        "type": "Point",
        "coordinates": [
          -117.24848888888889,
          32.79816388888889
        ]
      },
      "properties": {
        "caption": "In front of the sushi place",
        "image": "https://raw.githubusercontent.com/justhappytobehereco/sticker-map-data/main/images/recyKchAWx0RaX6nw.webp",
        "record_id": "recyKchAWx0RaX6nw",
        "location": "32.798164, -117.248489",
        "location_source": "photo_exif_gps",
        "location_format": "latitude_longitude"
      }
    },
    {
      "type": "Feature",
      "geometry": {
        "type": "Point",
        "coordinates": [
          -117.2525111111111,
          32.77153055555556
        ]
      },
      "properties": {
        "caption": "Transformer",
        "image": "https://raw.githubusercontent.com/justhappytobehereco/sticker-map-data/main/images/reclyucy59hGuOpWy.webp",
        "record_id": "reclyucy59hGuOpWy",
        "location": "32.771531, -117.252511",
        "location_source": "photo_exif_gps",
        "location_format": "latitude_longitude"
      }
    },
    {
      "type": "Feature",
      "geometry": {
        "type": "Point",
        "coordinates": [
          -117.25420277777778,
          32.791866666666664
        ]
      },
      "properties": {
        "caption": "Blue pipe",
        "image": "https://raw.githubusercontent.com/justhappytobehereco/sticker-map-data/main/images/rec5jXpfybL39269k.webp",
        "record_id": "rec5jXpfybL39269k",
        "location": "32.791867, -117.254203",
        "location_source": "photo_exif_gps",
        "location_format": "latitude_longitude"
      }
    },
    {
      "type": "Feature",
      "geometry": {
        "type": "Point",
        "coordinates": [
          -117.25436388888889,
          32.79352222222222
        ]
      },
      "properties": {
        "caption": "Transformer",
        "image": "https://raw.githubusercontent.com/justhappytobehereco/sticker-map-data/main/images/recapT1ULftxmDK1V.webp",
        "record_id": "recapT1ULftxmDK1V",
        "location": "32.793522, -117.254364",
        "location_source": "photo_exif_gps",
        "location_format": "latitude_longitude"
      }
    },
    {
      "type": "Feature",
      "geometry": {
        "type": "Point",
        "coordinates": [
          -117.2559888888889,
          32.794466666666665
        ]
      },
      "properties": {
        "caption": "Blue cage",
        "image": "https://raw.githubusercontent.com/justhappytobehereco/sticker-map-data/main/images/recYz6BERYMcSfWJr.webp",
        "record_id": "recYz6BERYMcSfWJr",
        "location": "32.794467, -117.255989",
        "location_source": "photo_exif_gps",
        "location_format": "latitude_longitude"
      }
    },
    {
      "type": "Feature",
      "geometry": {
        "type": "Point",
        "coordinates": [
          -117.25586666666666,
          32.793949999999995
        ]
      },
      "properties": {
        "caption": "Sticker pole",
        "image": "https://raw.githubusercontent.com/justhappytobehereco/sticker-map-data/main/images/recu6Hg2TSztx5aAE.webp",
        "record_id": "recu6Hg2TSztx5aAE",
        "location": "32.793950, -117.255867",
        "location_source": "photo_exif_gps",
        "location_format": "latitude_longitude"
      }
    },
    {
      "type": "Feature",
      "geometry": {
        "type": "Point",
        "coordinates": [
          -117.255875,
          32.79355555555556
        ]
      },
      "properties": {
        "caption": "Back of the sign",
        "image": "https://raw.githubusercontent.com/justhappytobehereco/sticker-map-data/main/images/recqAx2MKq6Q5QYmd.webp",
        "record_id": "recqAx2MKq6Q5QYmd",
        "location": "32.793556, -117.255875",
        "location_source": "photo_exif_gps",
        "location_format": "latitude_longitude"
      }
    },
    {
      "type": "Feature",
      "geometry": {
        "type": "Point",
        "coordinates": [
          -117.25546388888888,
          32.792030555555556
        ]
      },
      "properties": {
        "caption": "Pole",
        "image": "https://raw.githubusercontent.com/justhappytobehereco/sticker-map-data/main/images/recHU5TzqD2x9CYQb.webp",
        "record_id": "recHU5TzqD2x9CYQb",
        "location": "32.792031, -117.255464",
        "location_source": "photo_exif_gps",
        "location_format": "latitude_longitude"
      }
    },
    {
      "type": "Feature",
      "geometry": {
        "type": "Point",
        "coordinates": [
          -117.25510277777778,
          32.790663888888886
        ]
      },
      "properties": {
        "caption": "Parking lot sign",
        "image": "https://raw.githubusercontent.com/justhappytobehereco/sticker-map-data/main/images/recahm455BTQDGriZ.webp",
        "record_id": "recahm455BTQDGriZ",
        "location": "32.790664, -117.255103",
        "location_source": "photo_exif_gps",
        "location_format": "latitude_longitude"
      }
    },
    {
      "type": "Feature",
      "geometry": {
        "type": "Point",
        "coordinates": [
          -117.25381388888889,
          32.79076111111111
        ]
      },
      "properties": {
        "caption": "Walk button",
        "image": "https://raw.githubusercontent.com/justhappytobehereco/sticker-map-data/main/images/rec4ktVx4d2jFOAZH.webp",
        "record_id": "rec4ktVx4d2jFOAZH",
        "location": "32.790761, -117.253814",
        "location_source": "photo_exif_gps",
        "location_format": "latitude_longitude"
      }
    },
    {
      "type": "Feature",
      "geometry": {
        "type": "Point",
        "coordinates": [
          -117.25410555555555,
          32.79163333333333
        ]
      },
      "properties": {
        "caption": "Back of the sign",
        "image": "https://raw.githubusercontent.com/justhappytobehereco/sticker-map-data/main/images/recMW1Zi3sTo3tXwi.webp",
        "record_id": "recMW1Zi3sTo3tXwi",
        "location": "32.791633, -117.254106",
        "location_source": "photo_exif_gps",
        "location_format": "latitude_longitude"
      }
    },
    {
      "type": "Feature",
      "geometry": {
        "type": "Point",
        "coordinates": [
          -117.254325,
          32.79195833333333
        ]
      },
      "properties": {
        "caption": "Back of the other sign",
        "image": "https://raw.githubusercontent.com/justhappytobehereco/sticker-map-data/main/images/recccA421lbe0Cy4d.webp",
        "record_id": "recccA421lbe0Cy4d",
        "location": "32.791958, -117.254325",
        "location_source": "photo_exif_gps",
        "location_format": "latitude_longitude"
      }
    },
    {
      "type": "Feature",
      "geometry": {
        "type": "Point",
        "coordinates": [
          -117.2540361111111,
          32.79244166666666
        ]
      },
      "properties": {
        "caption": "Walk button",
        "image": "https://raw.githubusercontent.com/justhappytobehereco/sticker-map-data/main/images/recKl6pZbabBydjTp.webp",
        "record_id": "recKl6pZbabBydjTp",
        "location": "32.792442, -117.254036",
        "location_source": "photo_exif_gps",
        "location_format": "latitude_longitude"
      }
    },
    {
      "type": "Feature",
      "geometry": {
        "type": "Point",
        "coordinates": [
          -117.25459166666667,
          32.79453611111111
        ]
      },
      "properties": {
        "caption": "No skateboarding sign",
        "image": "https://raw.githubusercontent.com/justhappytobehereco/sticker-map-data/main/images/recZFrsnUnl79qOY9.webp",
        "record_id": "recZFrsnUnl79qOY9",
        "location": "32.794536, -117.254592",
        "location_source": "photo_exif_gps",
        "location_format": "latitude_longitude"
      }
    },
    {
      "type": "Feature",
      "geometry": {
        "type": "Point",
        "coordinates": [
          -117.25328888888889,
          32.797066666666666
        ]
      },
      "properties": {
        "caption": "Parking meter",
        "image": "https://raw.githubusercontent.com/justhappytobehereco/sticker-map-data/main/images/recUmL94qWpiCur15.webp",
        "record_id": "recUmL94qWpiCur15",
        "location": "32.797067, -117.253289",
        "location_source": "photo_exif_gps",
        "location_format": "latitude_longitude"
      }
    },
    {
      "type": "Feature",
      "geometry": {
        "type": "Point",
        "coordinates": [
          -117.25175555555556,
          32.79729722222222
        ]
      },
      "properties": {
        "caption": "Walk button",
        "image": "https://raw.githubusercontent.com/justhappytobehereco/sticker-map-data/main/images/recwBIkI0aI3Mh6r4.webp",
        "record_id": "recwBIkI0aI3Mh6r4",
        "location": "32.797297, -117.251756",
        "location_source": "photo_exif_gps",
        "location_format": "latitude_longitude"
      }
    },
    {
      "type": "Feature",
      "geometry": {
        "type": "Point",
        "coordinates": [
          -117.25140277777778,
          32.79749722222222
        ]
      },
      "properties": {
        "caption": "Parking meter",
        "image": "https://raw.githubusercontent.com/justhappytobehereco/sticker-map-data/main/images/rec5DzwtoygIfKWWh.webp",
        "record_id": "rec5DzwtoygIfKWWh",
        "location": "32.797497, -117.251403",
        "location_source": "photo_exif_gps",
        "location_format": "latitude_longitude"
      }
    },
    {
      "type": "Feature",
      "geometry": {
        "type": "Point",
        "coordinates": [
          -117.25125833333334,
          32.79745833333333
        ]
      },
      "properties": {
        "caption": "ATTENTION!!",
        "image": "https://raw.githubusercontent.com/justhappytobehereco/sticker-map-data/main/images/reccVAhVudRkQlZjZ.webp",
        "record_id": "reccVAhVudRkQlZjZ",
        "location": "32.797458, -117.251258",
        "location_source": "photo_exif_gps",
        "location_format": "latitude_longitude"
      }
    },
    {
      "type": "Feature",
      "geometry": {
        "type": "Point",
        "coordinates": [
          -117.25106111111111,
          32.797558333333335
        ]
      },
      "properties": {
        "caption": "Door to alley",
        "image": "https://raw.githubusercontent.com/justhappytobehereco/sticker-map-data/main/images/rec8MWaixfk56Y6Fl.webp",
        "record_id": "rec8MWaixfk56Y6Fl",
        "location": "32.797558, -117.251061",
        "location_source": "photo_exif_gps",
        "location_format": "latitude_longitude"
      }
    },
    {
      "type": "Feature",
      "geometry": {
        "type": "Point",
        "coordinates": [
          -117.25106111111111,
          32.79747777777778
        ]
      },
      "properties": {
        "caption": "Door frame",
        "image": "https://raw.githubusercontent.com/justhappytobehereco/sticker-map-data/main/images/recM9TnwAc95XU1wY.webp",
        "record_id": "recM9TnwAc95XU1wY",
        "location": "32.797478, -117.251061",
        "location_source": "photo_exif_gps",
        "location_format": "latitude_longitude"
      }
    },
    {
      "type": "Feature",
      "geometry": {
        "type": "Point",
        "coordinates": [
          -117.25158611111111,
          32.79744722222222
        ]
      },
      "properties": {
        "caption": "Bike rack",
        "image": "https://raw.githubusercontent.com/justhappytobehereco/sticker-map-data/main/images/recR2U3Uy108D9qAe.webp",
        "record_id": "recR2U3Uy108D9qAe",
        "location": "32.797447, -117.251586",
        "location_source": "photo_exif_gps",
        "location_format": "latitude_longitude"
      }
    },
    {
      "type": "Feature",
      "geometry": {
        "type": "Point",
        "coordinates": [
          -117.25176944444445,
          32.79729722222222
        ]
      },
      "properties": {
        "caption": "Back of the sign",
        "image": "https://raw.githubusercontent.com/justhappytobehereco/sticker-map-data/main/images/rec5atxpGkypOdsDh.webp",
        "record_id": "rec5atxpGkypOdsDh",
        "location": "32.797297, -117.251769",
        "location_source": "photo_exif_gps",
        "location_format": "latitude_longitude"
      }
    },
    {
      "type": "Feature",
      "geometry": {
        "type": "Point",
        "coordinates": [
          2.1587527777777775,
          41.41206666666667
        ]
      },
      "properties": {
        "caption": "Look in the nook!",
        "image": "https://raw.githubusercontent.com/justhappytobehereco/sticker-map-data/main/images/rec6AqpFPZyc8ylCm.webp",
        "record_id": "rec6AqpFPZyc8ylCm",
        "location": "41.412067, 2.158753",
        "location_source": "photo_exif_gps",
        "location_format": "latitude_longitude"
      }
    },
    {
      "type": "Feature",
      "geometry": {
        "type": "Point",
        "coordinates": [
          2.6220944444444445,
          39.70996111111111
        ]
      },
      "properties": {
        "caption": "on the mailbox",
        "image": "https://raw.githubusercontent.com/justhappytobehereco/sticker-map-data/main/images/rec31wLdDaJjSU1tw.webp",
        "record_id": "rec31wLdDaJjSU1tw",
        "location": "39.709961, 2.622094",
        "location_source": "photo_exif_gps",
        "location_format": "latitude_longitude"
      }
    },
    {
      "type": "Feature",
      "geometry": {
        "type": "Point",
        "coordinates": [
          12.482858333333333,
          41.906036111111106
        ]
      },
      "properties": {
        "caption": "On the bottom of the sign",
        "image": "https://raw.githubusercontent.com/justhappytobehereco/sticker-map-data/main/images/recnZjAiYioZiQI3B.webp",
        "record_id": "recnZjAiYioZiQI3B",
        "location": "41.906036, 12.482858",
        "location_source": "photo_exif_gps",
        "location_format": "latitude_longitude"
      }
    },
    {
      "type": "Feature",
      "geometry": {
        "type": "Point",
        "coordinates": [
          9.826533333333334,
          44.10381944444445
        ]
      },
      "properties": {
        "caption": "On the front of the cannon",
        "image": "https://raw.githubusercontent.com/justhappytobehereco/sticker-map-data/main/images/recNSCjmhsEqhW12M.webp",
        "record_id": "recNSCjmhsEqhW12M",
        "location": "44.103819, 9.826533",
        "location_source": "photo_exif_gps",
        "location_format": "latitude_longitude"
      }
    },
    {
      "type": "Feature",
      "geometry": {
        "type": "Point",
        "coordinates": [
          8.930002777777776,
          44.413444444444444
        ]
      },
      "properties": {
        "caption": "In the pay phone booth",
        "image": "https://raw.githubusercontent.com/justhappytobehereco/sticker-map-data/main/images/reck8GmtSPYVb6ub3.webp",
        "record_id": "reck8GmtSPYVb6ub3",
        "location": "44.413444, 8.930003",
        "location_source": "photo_exif_gps",
        "location_format": "latitude_longitude"
      }
    },
    {
      "type": "Feature",
      "geometry": {
        "type": "Point",
        "coordinates": [
          5.450722222222223,
          43.52898888888889
        ]
      },
      "properties": {
        "caption": "do i need to explain",
        "image": "https://raw.githubusercontent.com/justhappytobehereco/sticker-map-data/main/images/recwrpqh7IPfwX9QC.webp",
        "record_id": "recwrpqh7IPfwX9QC",
        "location": "43.528989, 5.450722",
        "location_source": "photo_exif_gps",
        "location_format": "latitude_longitude"
      }
    },
    {
      "type": "Feature",
      "geometry": {
        "type": "Point",
        "coordinates": [
          8.737836111111111,
          41.92350277777778
        ]
      },
      "properties": {
        "caption": "on da pole",
        "image": "https://raw.githubusercontent.com/justhappytobehereco/sticker-map-data/main/images/recYxNkrW4ijiVGGj.webp",
        "record_id": "recYxNkrW4ijiVGGj",
        "location": "41.923503, 8.737836",
        "location_source": "photo_exif_gps",
        "location_format": "latitude_longitude"
      }
    },
    {
      "type": "Feature",
      "geometry": {
        "type": "Point",
        "coordinates": [
          5.450758333333334,
          43.527652777777774
        ]
      },
      "properties": {
        "caption": "in da cheese store",
        "image": "https://raw.githubusercontent.com/justhappytobehereco/sticker-map-data/main/images/rec0nk0cc5GElWl4s.webp",
        "record_id": "rec0nk0cc5GElWl4s",
        "location": "43.527653, 5.450758",
        "location_source": "photo_exif_gps",
        "location_format": "latitude_longitude"
      }
    },
    {
      "type": "Feature",
      "geometry": {
        "type": "Point",
        "coordinates": [
          5.371675,
          43.28491666666667
        ]
      },
      "properties": {
        "caption": "telescope!!",
        "image": "https://raw.githubusercontent.com/justhappytobehereco/sticker-map-data/main/images/recXexqPKPqzyAfVB.webp",
        "record_id": "recXexqPKPqzyAfVB",
        "location": "43.284917, 5.371675",
        "location_source": "photo_exif_gps",
        "location_format": "latitude_longitude"
      }
    },
    {
      "type": "Feature",
      "geometry": {
        "type": "Point",
        "coordinates": [
          -88.44944722222223,
          42.855961111111114
        ]
      },
      "properties": {
        "caption": "Walk in to the golf course clubhouse and look behind the bar!",
        "image": "https://raw.githubusercontent.com/justhappytobehereco/sticker-map-data/main/images/recGipGowZzxLgKYP.webp",
        "record_id": "recGipGowZzxLgKYP",
        "location": "42.855961, -88.449447",
        "location_source": "photo_exif_gps",
        "location_format": "latitude_longitude"
      }
    }
  ]
}
